RADFXSAT (FOX-1B)       
1 43017U 17073E   26068.59518419  .00011352  00000+0  51457-3 0  9993
2 43017  97.4852 297.8938 0154575 312.4525  46.3719 15.10873817450344
STARLINK-4299           
1 53172U 22083AS  26068.51228001  .00000380  00000+0  41967-4 0  9995
2 53172  53.2178 159.8301 0001245  76.6773 283.4358 15.08835916201395
