[{"OBJECT_NAME":"RADFXSAT (FOX-1B)","OBJECT_ID":"2017-073E","EPOCH":"2026-03-09T14:17:03.914016","MEAN_MOTION":15.10873817,"ECCENTRICITY":0.0154575,"INCLINATION":97.4852,"RA_OF_ASC_NODE":297.8938,"ARG_OF_PERICENTER":312.4525,"MEAN_ANOMALY":46.3719,"EPHEMERIS_TYPE":0,"CLASSIFICATION_TYPE":"U","NORAD_CAT_ID":43017,"ELEMENT_SET_NO":999,"REV_AT_EPOCH":45034,"BSTAR":0.00051457,"MEAN_MOTION_DOT":0.00011352,"MEAN_MOTION_DDOT":0},{"OBJECT_NAME":"STARLINK-4299","OBJECT_ID":"2022-083AS","EPOCH":"2026-03-09T12:17:40.992864","MEAN_MOTION":15.08835916,"ECCENTRICITY":0.00012457,"INCLINATION":53.2178,"RA_OF_ASC_NODE":159.8301,"ARG_OF_PERICENTER":76.6773,"MEAN_ANOMALY":283.4358,"EPHEMERIS_TYPE":0,"CLASSIFICATION_TYPE":"U","NORAD_CAT_ID":53172,"ELEMENT_SET_NO":999,"REV_AT_EPOCH":20139,"BSTAR":4.1966994e-5,"MEAN_MOTION_DOT":3.8e-6,"MEAN_MOTION_DDOT":0}]
